NORAD_CAT_ID,OBJECT_NAME,OBJECT_TYPE,EPOCH,MEAN_MOTION,ECCENTRICITY,INCLINATION,RA_OF_ASC_NODE,ARG_OF_PERICENTER,MEAN_ANOMALY,BSTAR,MEAN_MOTION_DOT,MEAN_MOTION_DDOT,TLE_LINE0,TLE_LINE1,TLE_LINE2,SEMIMAJOR_AXIS,PERIOD,APOGEE,PERIGEE,DECAYED
53002.0,STARLINK-4121,PAYLOAD,2023-12-25 12:54:11,15.08841866,0.0001554,53.2183,108.5929,99.5835,260.5333,0.00011855,1.599e-05,0.0,0 STARLINK-4121,1 53002U 22076S   23359.53763118  .00001599  00000-0  11855-3 0  9990,2 53002  53.2183 108.5929 0001554  99.5835 260.5333 15.08841866 81291,6917.875,95.437,540.815,538.665,0.0
53002.0,STARLINK-4121,PAYLOAD,2023-12-26 11:09:36,15.08828391,0.0001608,53.2176,104.4323,94.5848,265.5328,0.00013425,1.849e-05,0.0,0 STARLINK-4121,1 53002U 22076S   23360.46500025  .00001849  00000-0  13425-3 0  9993,2 53002  53.2176 104.4323 0001608  94.5848 265.5328 15.08828391 81900,6917.916,95.438,540.893,538.668,0.0
53002.0,STARLINK-4121,PAYLOAD,2023-12-26 14:20:22,15.08834335,0.0001545,53.2177,103.8367,99.8572,260.2595,4.739e-05,4.66e-06,0.0,0 STARLINK-4121,1 53002U 22076S   23360.59748036  .00000466  00000-0  47390-4 0  9996,2 53002  53.2177 103.8367 0001545  99.8572 260.2595 15.08834335 81457,6917.898,95.438,540.832,538.694,0.0
53002.0,STARLINK-4121,PAYLOAD,2023-12-27 14:11:09,15.08843273,0.0001632,53.2175,99.3726,93.0964,267.0215,9.4628e-05,1.218e-05,0.0,0 STARLINK-4121,1 53002U 22076S   23361.59107745  .00001218  00000-0  94628-4 0  9995,2 53002  53.2175  99.3726 0001632  93.0964 267.0215 15.08843273 81603,6917.87,95.437,540.864,538.606,0.0
53002.0,STARLINK-4121,PAYLOAD,2023-12-28 12:26:33,15.08839898,0.0001854,53.2183,95.2108,62.9131,297.205,0.00015273,2.143e-05,0.0,0 STARLINK-4121,1 53002U 22076S   23362.51844161  .00002143  00000-0  15273-3 0  9994,2 53002  53.2183  95.2108 0001854  62.9131 297.2050 15.08839898 82216,6917.881,95.438,541.028,538.463,0.0
53002.0,STARLINK-4121,PAYLOAD,2023-12-28 14:01:56,15.0884418,0.0001775,53.2184,94.9123,70.7108,289.4076,0.00014924,2.088e-05,0.0,0 STARLINK-4121,1 53002U 22076S   23362.58467877  .00002088  00000-0  14924-3 0  9996,2 53002  53.2184  94.9123 0001775  70.7108 289.4076 15.08844180 81752,6917.868,95.437,540.961,538.505,0.0
53002.0,STARLINK-4121,PAYLOAD,2023-12-29 12:17:20,15.08841882,0.0001751,53.2182,90.7489,70.533,289.5851,4.3745e-05,4.08e-06,0.0,0 STARLINK-4121,1 53002U 22076S   23363.51204296  .00000408  00000-0  43745-4 0  9992,2 53002  53.2182  90.7489 0001751  70.5330 289.5851 15.08841882 81891,6917.875,95.437,540.951,538.528,0.0
53002.0,STARLINK-4121,PAYLOAD,2023-12-30 12:08:06,15.08853698,0.0001658,53.2181,86.2891,77.3176,282.8002,1.1185e-05,-1.1e-06,0.0,0 STARLINK-4121,1 53002U 22076S   23364.50563472 -.00000110  00000-0  11185-4 0  9990,2 53002  53.2181  86.2891 0001658  77.3176 282.8002 15.08853698 82518,6917.839,95.437,540.85,538.557,0.0
53002.0,STARLINK-4121,PAYLOAD,2023-12-30 16:54:15,15.08847846,0.0001613,53.2178,85.396,97.2994,262.8181,0.00024853,3.67e-05,0.0,0 STARLINK-4121,1 53002U 22076S   23364.70435087  .00003670  00000-0  24853-3 0  9990,2 53002  53.2178  85.3960 0001613  97.2994 262.8181 15.08847846 82076,6917.856,95.437,540.837,538.606,0.0
53002.0,STARLINK-4121,PAYLOAD,2023-12-31 11:58:54,15.08836119,0.000148,53.2174,81.8275,86.8603,273.2558,4.4771e-05,4.25e-06,0.0,0 STARLINK-4121,1 53002U 22076S   23365.49924477  .00000425  00000-0  44771-4 0  9990,2 53002  53.2174  81.8275 0001480  86.8603 273.2558 15.08836119 82665,6917.892,95.438,540.781,538.733,0.0
53002.0,STARLINK-4121,PAYLOAD,2024-01-01 11:49:41,15.0884583,0.0001456,53.2173,77.3669,88.304,271.8119,6.0529e-05,6.76e-06,0.0,0 STARLINK-4121,1 53002U 22076S   24001.49283989  .00000676  00000-0  60529-4 0  9991,2 53002  53.2173  77.3669 0001456  88.3040 271.8119 15.08845830 82810,6917.863,95.437,540.735,538.72,0.0
53002.0,STARLINK-4121,PAYLOAD,2024-01-02 11:40:28,15.08839743,0.0001409,53.2171,72.9057,99.5619,260.5532,0.00010727,1.42e-05,0.0,0 STARLINK-4121,1 53002U 22076S   24002.48644420  .00001420  00000-0  10727-3 0  9994,2 53002  53.2171  72.9057 0001409  99.5619 260.5532 15.08839743 82960,6917.881,95.438,540.721,538.771,0.0
53002.0,STARLINK-4121,PAYLOAD,2024-01-03 09:55:53,15.08836384,0.0001281,53.217,68.7418,99.3003,260.8134,2.8901e-05,1.72e-06,0.0,0 STARLINK-4121,1 53002U 22076S   24003.41381061  .00000172  00000-0  28901-4 0  9994,2 53002  53.2170  68.7418 0001281  99.3003 260.8134 15.08836384 83102,6917.891,95.438,540.643,538.87,0.0
53002.0,STARLINK-4121,PAYLOAD,2024-01-04 11:22:03,15.08841601,0.0001264,53.2176,63.9859,86.3809,273.7328,0.00011776,1.587e-05,0.0,0 STARLINK-4121,1 53002U 22076S   24004.47364752  .00001587  00000-0  11776-3 0  9991,2 53002  53.2176  63.9859 0001264  86.3809 273.7328 15.08841601 83268,6917.875,95.437,540.615,538.866,0.0
53002.0,STARLINK-4121,PAYLOAD,2024-01-05 12:48:12,15.08876861,0.0001948,53.2186,59.2259,107.8652,252.2553,-0.0003919,-6.526e-05,0.0,0 STARLINK-4121,1 53002U 22076S   24005.53347602 -.00006526  00000-0 -39190-3 0  9994,2 53002  53.2186  59.2259 0001948 107.8652 252.2553 15.08876861 83421,6917.768,95.435,540.98,538.285,0.0
53002.0,STARLINK-4121,PAYLOAD,2024-01-06 03:06:42,15.08839581,0.0001413,53.2175,56.5494,96.9973,263.118,3.3736e-06,-2.34e-06,0.0,0 STARLINK-4121,1 53002U 22076S   24006.12965402 -.00000234  00000-0  33736-5 0  9995,2 53002  53.2175  56.5494 0001413  96.9973 263.1180 15.08839581 83516,6917.882,95.438,540.724,538.769,0.0
53002.0,STARLINK-4121,PAYLOAD,2024-01-06 09:28:14,15.08844084,0.0001273,53.2183,55.361,100.6054,259.5082,4.4893e-05,4.27e-06,0.0,0 STARLINK-4121,1 53002U 22076S   24006.39460951  .00000427  00000-0  44893-4 0  9991,2 53002  53.2183  55.3610 0001273 100.6054 259.5082 15.08844084 83085,6917.868,95.437,540.614,538.852,0.0
53002.0,STARLINK-4121,PAYLOAD,2024-01-07 07:43:37,15.08849342,0.0001671,53.2184,51.199,119.0146,241.1013,7.9293e-05,9.74e-06,0.0,0 STARLINK-4121,1 53002U 22076S   24007.32196471  .00000974  00000-0  79293-4 0  9997,2 53002  53.2184  51.1990 0001671 119.0146 241.1013 15.08849342 83699,6917.852,95.437,540.873,538.561,0.0
53002.0,STARLINK-4121,PAYLOAD,2024-01-07 23:37:29,15.08838469,0.0001357,53.2182,48.2269,81.1782,278.9364,9.7673e-05,1.267e-05,0.0,0 STARLINK-4121,1 53002U 22076S   24007.98437224  .00001267  00000-0  97673-4 0  9991,2 53002  53.2182  48.2269 0001357  81.1782 278.9364 15.08838469 83795,6917.885,95.438,540.689,538.811,0.0
53002.0,STARLINK-4121,PAYLOAD,2024-01-08 09:09:48,15.08841305,0.000147,53.2175,46.442,84.2194,275.8966,8.0153e-05,9.88e-06,0.0,0 STARLINK-4121,1 53002U 22076S   24008.38181063  .00000988  00000-0  80153-4 0  9997,2 53002  53.2175  46.4420 0001470  84.2194 275.8966 15.08841305 83385,6917.876,95.437,540.758,538.724,0.0
53002.0,STARLINK-4121,PAYLOAD,2024-01-08 23:28:16,15.08897317,0.0001397,53.2184,43.7701,103.2797,256.8351,-0.00075213,-0.00012257,0.0,0 STARLINK-4121,1 53002U 22076S   24008.97796638 -.00012257  00000-0 -75213-3 0  9996,2 53002  53.2184  43.7701 0001397 103.2797 256.8351 15.08897317 83949,6917.705,95.434,540.537,538.604,0.0
53002.0,STARLINK-4121,PAYLOAD,2024-01-09 12:11:21,15.08848803,0.0001707,53.2172,41.3835,107.0326,253.0853,5.1046e-05,5.25e-06,0.0,0 STARLINK-4121,1 53002U 22076S   24009.50788468  .00000525  00000-0  51046-4 0  9990,2 53002  53.2172  41.3835 0001707 107.0326 253.0853 15.08848803 84025,6917.853,95.437,540.899,538.538,0.0
53002.0,STARLINK-4121,PAYLOAD,2024-01-10 05:40:36,15.08832644,0.0001494,53.2166,38.1106,106.7142,253.4014,2.3175e-05,8.1e-07,0.0,0 STARLINK-4121,1 53002U 22076S   24010.23653665  .00000081  00000-0  23175-4 0  9991,2 53002  53.2166  38.1106 0001494 106.7142 253.4014 15.08832644 84139,6917.903,95.438,540.801,538.734,0.0
53002.0,STARLINK-4121,PAYLOAD,2024-01-10 10:26:45,15.08838278,0.0001595,53.218,37.2265,104.4507,255.6662,6.4525e-05,7.39e-06,0.0,0 STARLINK-4121,1 53002U 22076S   24010.43525330  .00000739  00000-0  64525-4 0  9994,2 53002  53.2180  37.2265 0001595 104.4507 255.6662 15.08838278 83695,6917.886,95.438,540.854,538.647,0.0
53002.0,STARLINK-4121,PAYLOAD,2024-01-10 12:02:08,15.08840128,0.0001529,53.2174,36.9254,100.9,259.2165,7.0958e-05,8.41e-06,0.0,0 STARLINK-4121,1 53002U 22076S   24010.50149202  .00000841  00000-0  70958-4 0  9993,2 53002  53.2174  36.9254 0001529 100.9000 259.2165 15.08840128 84177,6917.88,95.438,540.803,538.687,0.0
53002.0,STARLINK-4121,PAYLOAD,2024-01-11 08:42:09,15.08843157,0.0001536,53.2187,33.0592,74.3157,285.8004,9.4513e-05,1.217e-05,0.0,0 STARLINK-4121,1 53002U 22076S   24011.36261295  .00001217  00000-0  94513-4 0  9996,2 53002  53.2187  33.0592 0001536  74.3157 285.8004 15.08843157 83833,6917.871,95.437,540.798,538.673,0.0
53002.0,STARLINK-4121,PAYLOAD,2024-01-12 00:36:01,15.08838167,0.0001856,53.2186,30.0883,61.6748,298.4431,0.00014394,2.003e-05,0.0,0 STARLINK-4121,1 53002U 22076S   24012.02501784  .00002003  00000-0  14394-3 0  9992,2 53002  53.2186  30.0883 0001856  61.6748 298.4431 15.08838167 84405,6917.886,95.438,541.035,538.467,0.0
53002.0,STARLINK-4121,PAYLOAD,2024-01-12 08:32:57,15.08836345,0.0001892,53.2187,28.5999,56.4474,303.6699,0.00011452,1.535e-05,0.0,0 STARLINK-4121,1 53002U 22076S   24012.35622167  .00001535  00000-0  11452-3 0  9998,2 53002  53.2187  28.5999 0001892  56.4474 303.6699 15.08836345 83987,6917.892,95.438,541.065,538.448,0.0
53002.0,STARLINK-4121,PAYLOAD,2024-01-13 05:12:58,15.08841325,0.0001874,53.2189,24.7346,67.1988,292.9202,6.2502e-05,7.07e-06,0.0,0 STARLINK-4121,1 53002U 22076S   24013.21734117  .00000707  00000-0  62502-4 0  9996,2 53002  53.2189  24.7346 0001874  67.1988 292.9202 15.08841325 84583,6917.876,95.437,541.038,538.445,0.0
53002.0,STARLINK-4121,PAYLOAD,2024-01-13 09:59:07,15.08849425,0.0001718,53.2187,23.8413,77.8696,282.2488,0.00012252,1.663e-05,0.0,0 STARLINK-4121,1 53002U 22076S   24013.41605338  .00001663  00000-0  12252-3 0  9998,2 53002  53.2187  23.8413 0001718  77.8696 282.2488 15.08849425 84618,6917.852,95.437,540.905,538.528,0.0
